{
  "type": "FeatureCollection",
  "features": [
    {
      "type": "Feature",
      "properties": {
        "norad_id": 66432,
        "name": "STARLINK-35446",
        "group": "last-30-days",
        "lat": 41.490563884887244,
        "lon": -147.2833591511115,
        "alt_km": 409.2809326576544,
        "timestamp": "2025-12-02T23:34:14.290351+00:00",
        "meta_object_name": "STARLINK-35446",
        "meta_object_id": "2025-259L",
        "meta_epoch": "2025-12-02T12:00:05.998752",
        "meta_mean_motion": 15.50536666,
        "meta_eccentricity": 0.0001455,
        "meta_inclination": 42.9996,
        "meta_ra_of_asc_node": 107.1828,
        "meta_arg_of_pericenter": 255.2952,
        "meta_mean_anomaly": 34.3451,
        "meta_ephemeris_type": 0,
        "meta_classification_type": "U",
        "meta_norad_cat_id": 66432,
        "meta_element_set_no": 999,
        "meta_rev_at_epoch": 463,
        "meta_bstar": 0.0010043,
        "meta_mean_motion_dot": 0.00058934,
        "meta_mean_motion_ddot": 0,
        "tle_line1": "1 66432U 25259L   25336.50006943  .00058934  00000+0  10043-2 0  9998",
        "tle_line2": "2 66432  42.9996 107.1828 0001455 255.2952  34.3451 15.50536666  4630"
      },
      "geometry": {
        "type": "Point",
        "coordinates": [
          -147.2833591511115,
          41.490563884887244
        ]
      }
    },
    {
      "type": "Feature",
      "properties": {
        "norad_id": 66433,
        "name": "STARLINK-35457",
        "group": "last-30-days",
        "lat": 41.04867227531268,
        "lon": -144.7852899821979,
        "alt_km": 409.20507002177237,
        "timestamp": "2025-12-02T23:34:14.290361+00:00",
        "meta_object_name": "STARLINK-35457",
        "meta_object_id": "2025-259M",
        "meta_epoch": "2025-12-02T12:00:05.998752",
        "meta_mean_motion": 15.50517997,
        "meta_eccentricity": 0.0001298,
        "meta_inclination": 42.9994,
        "meta_ra_of_asc_node": 107.1799,
        "meta_arg_of_pericenter": 256.8528,
        "meta_mean_anomaly": 34.7189,
        "meta_ephemeris_type": 0,
        "meta_classification_type": "U",
        "meta_norad_cat_id": 66433,
        "meta_element_set_no": 999,
        "meta_rev_at_epoch": 463,
        "meta_bstar": 0.001589,
        "meta_mean_motion_dot": 0.00093795,
        "meta_mean_motion_ddot": 0,
        "tle_line1": "1 66433U 25259M   25336.50006943  .00093795  00000+0  15890-2 0  9998",
        "tle_line2": "2 66433  42.9994 107.1799 0001298 256.8528  34.7189 15.50517997  4635"
      },
      "geometry": {
        "type": "Point",
        "coordinates": [
          -144.7852899821979,
          41.04867227531268
        ]
      }
    },
    {
      "type": "Feature",
      "properties": {
        "norad_id": 66434,
        "name": "STARLINK-35389",
        "group": "last-30-days",
        "lat": 40.546201680653006,
        "lon": -142.28909631821512,
        "alt_km": 409.52835610100465,
        "timestamp": "2025-12-02T23:34:14.290373+00:00",
        "meta_object_name": "STARLINK-35389",
        "meta_object_id": "2025-259N",
        "meta_epoch": "2025-12-02T12:00:05.998752",
        "meta_mean_motion": 15.50653498,
        "meta_eccentricity": 0.0001246,
        "meta_inclination": 42.9997,
        "meta_ra_of_asc_node": 107.1741,
        "meta_arg_of_pericenter": 252.4191,
        "meta_mean_anomaly": 41.0827,
        "meta_ephemeris_type": 0,
        "meta_classification_type": "U",
        "meta_norad_cat_id": 66434,
        "meta_element_set_no": 999,
        "meta_rev_at_epoch": 463,
        "meta_bstar": -0.0026381,
        "meta_mean_motion_dot": -0.00152529,
        "meta_mean_motion_ddot": 0,
        "tle_line1": "1 66434U 25259N   25336.50006943 -.00152529  00000+0 -26381-2 0  9999",
        "tle_line2": "2 66434  42.9997 107.1741 0001246 252.4191  41.0827 15.50653498  4634"
      },
      "geometry": {
        "type": "Point",
        "coordinates": [
          -142.28909631821512,
          40.546201680653006
        ]
      }
    },
    {
      "type": "Feature",
      "properties": {
        "norad_id": 66435,
        "name": "STARLINK-35502",
        "group": "last-30-days",
        "lat": 40.02140146730872,
        "lon": -139.96097529581547,
        "alt_km": 409.46370389632466,
        "timestamp": "2025-12-02T23:34:14.290382+00:00",
        "meta_object_name": "STARLINK-35502",
        "meta_object_id": "2025-259P",
        "meta_epoch": "2025-12-02T12:00:05.998752",
        "meta_mean_motion": 15.505299,
        "meta_eccentricity": 0.0001388,
        "meta_inclination": 42.9996,
        "meta_ra_of_asc_node": 107.1707,
        "meta_arg_of_pericenter": 259.2339,
        "meta_mean_anomaly": 36.1524,
        "meta_ephemeris_type": 0,
        "meta_classification_type": "U",
        "meta_norad_cat_id": 66435,
        "meta_element_set_no": 999,
        "meta_rev_at_epoch": 463,
        "meta_bstar": 0.0010642,
        "meta_mean_motion_dot": 0.00062482,
        "meta_mean_motion_ddot": 0,
        "tle_line1": "1 66435U 25259P   25336.50006943  .00062482  00000+0  10642-2 0  9999",
        "tle_line2": "2 66435  42.9996 107.1707 0001388 259.2339  36.1524 15.50529900  4631"
      },
      "geometry": {
        "type": "Point",
        "coordinates": [
          -139.96097529581547,
          40.02140146730872
        ]
      }
    },
    {
      "type": "Feature",
      "properties": {
        "norad_id": 66436,
        "name": "STARLINK-35501",
        "group": "last-30-days",
        "lat": 38.797687169203776,
        "lon": -135.28814986590658,
        "alt_km": 409.6286924938531,
        "timestamp": "2025-12-02T23:34:14.290392+00:00",
        "meta_object_name": "STARLINK-35501",
        "meta_object_id": "2025-259Q",
        "meta_epoch": "2025-12-02T12:00:05.998752",
        "meta_mean_motion": 15.5052411,
        "meta_eccentricity": 0.0001382,
        "meta_inclination": 42.9996,
        "meta_ra_of_asc_node": 107.1604,
        "meta_arg_of_pericenter": 258.3965,
        "meta_mean_anomaly": 40.8142,
        "meta_ephemeris_type": 0,
        "meta_classification_type": "U",
        "meta_norad_cat_id": 66436,
        "meta_element_set_no": 999,
        "meta_rev_at_epoch": 463,
        "meta_bstar": 0.0010802,
        "meta_mean_motion_dot": 0.0006342,
        "meta_mean_motion_ddot": 0,
        "tle_line1": "1 66436U 25259Q   25336.50006943  .00063420  00000+0  10802-2 0  9991",
        "tle_line2": "2 66436  42.9996 107.1604 0001382 258.3965  40.8142 15.50524110  4633"
      },
      "geometry": {
        "type": "Point",
        "coordinates": [
          -135.28814986590658,
          38.797687169203776
        ]
      }
    },
    {
      "type": "Feature",
      "properties": {
        "norad_id": 66437,
        "name": "STARLINK-35474",
        "group": "last-30-days",
        "lat": 38.11769595813543,
        "lon": -133.01565327341453,
        "alt_km": 409.7563973625074,
        "timestamp": "2025-12-02T23:34:14.290402+00:00",
        "meta_object_name": "STARLINK-35474",
        "meta_object_id": "2025-259R",
        "meta_epoch": "2025-12-02T12:00:05.998752",
        "meta_mean_motion": 15.50521905,
        "meta_eccentricity": 0.0001412,
        "meta_inclination": 42.9996,
        "meta_ra_of_asc_node": 107.1557,
        "meta_arg_of_pericenter": 259.2112,
        "meta_mean_anomaly": 41.9116,
        "meta_ephemeris_type": 0,
        "meta_classification_type": "U",
        "meta_norad_cat_id": 66437,
        "meta_element_set_no": 999,
        "meta_rev_at_epoch": 463,
        "meta_bstar": 0.0010411,
        "meta_mean_motion_dot": 0.00061088,
        "meta_mean_motion_ddot": 0,
        "tle_line1": "1 66437U 25259R   25336.50006943  .00061088  00000+0  10411-2 0  9996",
        "tle_line2": "2 66437  42.9996 107.1557 0001412 259.2112  41.9116 15.50521905  4631"
      },
      "geometry": {
        "type": "Point",
        "coordinates": [
          -133.01565327341453,
          38.11769595813543
        ]
      }
    },
    {
      "type": "Feature",
      "properties": {
        "norad_id": 66438,
        "name": "STARLINK-34681",
        "group": "last-30-days",
        "lat": 37.389755518118925,
        "lon": -130.7721889568783,
        "alt_km": 409.84326998199685,
        "timestamp": "2025-12-02T23:34:14.290411+00:00",
        "meta_object_name": "STARLINK-34681",
        "meta_object_id": "2025-259S",
        "meta_epoch": "2025-12-02T12:00:05.998752",
        "meta_mean_motion": 15.50532998,
        "meta_eccentricity": 0.0001463,
        "meta_inclination": 42.9996,
        "meta_ra_of_asc_node": 107.151,
        "meta_arg_of_pericenter": 256.3763,
        "meta_mean_anomaly": 46.6533,
        "meta_ephemeris_type": 0,
        "meta_classification_type": "U",
        "meta_norad_cat_id": 66438,
        "meta_element_set_no": 999,
        "meta_rev_at_epoch": 452,
        "meta_bstar": 0.00091099,
        "meta_mean_motion_dot": 0.00053379,
        "meta_mean_motion_ddot": 0,
        "tle_line1": "1 66438U 25259S   25336.50006943  .00053379  00000+0  91099-3 0  9993",
        "tle_line2": "2 66438  42.9996 107.1510 0001463 256.3763  46.6533 15.50532998  4524"
      },
      "geometry": {
        "type": "Point",
        "coordinates": [
          -130.7721889568783,
          37.389755518118925
        ]
      }
    }
  ]
}